CCSDS_OMM_VERS = 2.0
CREATION_DATE  = 
ORIGINATOR     = 

OBJECT_NAME    = STARLINK-36796
OBJECT_ID      = 2026-026B
CENTER_NAME    = EARTH
REF_FRAME      = TEME
TIME_SYSTEM    = UTC
MEAN_ELEMENT_THEORY = SGP/SGP4

EPOCH          = 2026-03-07T04:00:03.000096
MEAN_MOTION    = 15.56006353
ECCENTRICITY   = .0001872
INCLINATION    = 97.2846
RA_OF_ASC_NODE = 120.6434
ARG_OF_PERICENTER = 66.2347
MEAN_ANOMALY   = 104.1953

EPHEMERIS_TYPE = 0
CLASSIFICATION_TYPE = U
NORAD_CAT_ID   = 67722
ELEMENT_SET_NO = 999
REV_AT_EPOCH   = 490
BSTAR          = -.30386E-1
MEAN_MOTION_DOT = -.1869087E-1
MEAN_MOTION_DDOT = 0

CCSDS_OMM_VERS = 2.0
CREATION_DATE  = 
ORIGINATOR     = 

OBJECT_NAME    = STARLINK-36369
OBJECT_ID      = 2026-026C
CENTER_NAME    = EARTH
REF_FRAME      = TEME
TIME_SYSTEM    = UTC
MEAN_ELEMENT_THEORY = SGP/SGP4

EPOCH          = 2026-03-07T04:00:03.000096
MEAN_MOTION    = 15.56413131
ECCENTRICITY   = .0001843
INCLINATION    = 97.2841
RA_OF_ASC_NODE = 120.6498
ARG_OF_PERICENTER = 67.2861
MEAN_ANOMALY   = 117.4256

EPHEMERIS_TYPE = 0
CLASSIFICATION_TYPE = U
NORAD_CAT_ID   = 67723
ELEMENT_SET_NO = 999
REV_AT_EPOCH   = 490
BSTAR          = -.30133E-1
MEAN_MOTION_DOT = -.188033E-1
MEAN_MOTION_DDOT = 0

CCSDS_OMM_VERS = 2.0
CREATION_DATE  = 
ORIGINATOR     = 

OBJECT_NAME    = STARLINK-36752
OBJECT_ID      = 2026-026D
CENTER_NAME    = EARTH
REF_FRAME      = TEME
TIME_SYSTEM    = UTC
MEAN_ELEMENT_THEORY = SGP/SGP4

EPOCH          = 2026-03-07T04:00:03.000096
MEAN_MOTION    = 15.57712928
ECCENTRICITY   = .0001834
INCLINATION    = 97.2841
RA_OF_ASC_NODE = 120.6639
ARG_OF_PERICENTER = 74.0604
MEAN_ANOMALY   = 144.5164

EPHEMERIS_TYPE = 0
CLASSIFICATION_TYPE = U
NORAD_CAT_ID   = 67724
ELEMENT_SET_NO = 999
REV_AT_EPOCH   = 490
BSTAR          = -.29007E-1
MEAN_MOTION_DOT = -.1898122E-1
MEAN_MOTION_DDOT = 0

CCSDS_OMM_VERS = 2.0
CREATION_DATE  = 
ORIGINATOR     = 

OBJECT_NAME    = STARLINK-36754
OBJECT_ID      = 2026-026E
CENTER_NAME    = EARTH
REF_FRAME      = TEME
TIME_SYSTEM    = UTC
MEAN_ELEMENT_THEORY = SGP/SGP4

EPOCH          = 2026-03-07T04:00:03.000096
MEAN_MOTION    = 15.55117866
ECCENTRICITY   = .0001921
INCLINATION    = 97.2846
RA_OF_ASC_NODE = 120.6437
ARG_OF_PERICENTER = 61.5299
MEAN_ANOMALY   = 109.2176

EPHEMERIS_TYPE = 0
CLASSIFICATION_TYPE = U
NORAD_CAT_ID   = 67725
ELEMENT_SET_NO = 999
REV_AT_EPOCH   = 490
BSTAR          = -.31506E-1
MEAN_MOTION_DOT = -.1874563E-1
MEAN_MOTION_DDOT = 0

CCSDS_OMM_VERS = 2.0
CREATION_DATE  = 
ORIGINATOR     = 

OBJECT_NAME    = STARLINK-36755
OBJECT_ID      = 2026-026F
CENTER_NAME    = EARTH
REF_FRAME      = TEME
TIME_SYSTEM    = UTC
MEAN_ELEMENT_THEORY = SGP/SGP4

EPOCH          = 2026-03-07T04:00:03.000096
MEAN_MOTION    = 15.52664617
ECCENTRICITY   = .0001626
INCLINATION    = 97.2841
RA_OF_ASC_NODE = 120.6219
ARG_OF_PERICENTER = 62.4051
MEAN_ANOMALY   = 59.7152

EPHEMERIS_TYPE = 0
CLASSIFICATION_TYPE = U
NORAD_CAT_ID   = 67726
ELEMENT_SET_NO = 999
REV_AT_EPOCH   = 490
BSTAR          = -.34173E-1
MEAN_MOTION_DOT = -.186038E-1
MEAN_MOTION_DDOT = 0

CCSDS_OMM_VERS = 2.0
CREATION_DATE  = 
ORIGINATOR     = 

OBJECT_NAME    = STARLINK-36741
OBJECT_ID      = 2026-026G
CENTER_NAME    = EARTH
REF_FRAME      = TEME
TIME_SYSTEM    = UTC
MEAN_ELEMENT_THEORY = SGP/SGP4

EPOCH          = 2026-03-07T04:00:03.000096
MEAN_MOTION    = 15.53786910
ECCENTRICITY   = .0001842
INCLINATION    = 97.2843
RA_OF_ASC_NODE = 120.6364
ARG_OF_PERICENTER = 69.1844
MEAN_ANOMALY   = 84.3848

EPHEMERIS_TYPE = 0
CLASSIFICATION_TYPE = U
NORAD_CAT_ID   = 67727
ELEMENT_SET_NO = 999
REV_AT_EPOCH   = 490
BSTAR          = -.32771E-1
MEAN_MOTION_DOT = -.1858797E-1
MEAN_MOTION_DDOT = 0

CCSDS_OMM_VERS = 2.0
CREATION_DATE  = 
ORIGINATOR     = 

OBJECT_NAME    = STARLINK-36757
OBJECT_ID      = 2026-026H
CENTER_NAME    = EARTH
REF_FRAME      = TEME
TIME_SYSTEM    = UTC
MEAN_ELEMENT_THEORY = SGP/SGP4

EPOCH          = 2026-03-07T04:00:03.000096
MEAN_MOTION    = 15.58277070
ECCENTRICITY   = .0001795
INCLINATION    = 97.2837
RA_OF_ASC_NODE = 120.6795
ARG_OF_PERICENTER = 78.0796
MEAN_ANOMALY   = 176.9332

EPHEMERIS_TYPE = 0
CLASSIFICATION_TYPE = U
NORAD_CAT_ID   = 67728
ELEMENT_SET_NO = 999
REV_AT_EPOCH   = 490
BSTAR          = -.28414E-1
MEAN_MOTION_DOT = -.1899175E-1
MEAN_MOTION_DDOT = 0

CCSDS_OMM_VERS = 2.0
CREATION_DATE  = 
ORIGINATOR     = 

OBJECT_NAME    = STARLINK-36751
OBJECT_ID      = 2026-026J
CENTER_NAME    = EARTH
REF_FRAME      = TEME
TIME_SYSTEM    = UTC
MEAN_ELEMENT_THEORY = SGP/SGP4

EPOCH          = 2026-03-07T04:00:03.000096
MEAN_MOTION    = 15.58838668
ECCENTRICITY   = .0001724
INCLINATION    = 97.2838
RA_OF_ASC_NODE = 120.6904
ARG_OF_PERICENTER = 78.2597
MEAN_ANOMALY   = 201.6306

EPHEMERIS_TYPE = 0
CLASSIFICATION_TYPE = U
NORAD_CAT_ID   = 67729
ELEMENT_SET_NO = 999
REV_AT_EPOCH   = 490
BSTAR          = -.27659E-1
MEAN_MOTION_DOT = -.18897E-1
MEAN_MOTION_DDOT = 0

CCSDS_OMM_VERS = 2.0
CREATION_DATE  = 
ORIGINATOR     = 

OBJECT_NAME    = STARLINK-36747
OBJECT_ID      = 2026-026K
CENTER_NAME    = EARTH
REF_FRAME      = TEME
TIME_SYSTEM    = UTC
MEAN_ELEMENT_THEORY = SGP/SGP4

EPOCH          = 2026-03-07T04:00:03.000096
MEAN_MOTION    = 15.58738451
ECCENTRICITY   = .0001755
INCLINATION    = 97.2838
RA_OF_ASC_NODE = 120.6856
ARG_OF_PERICENTER = 75.7423
MEAN_ANOMALY   = 193.7137

EPHEMERIS_TYPE = 0
CLASSIFICATION_TYPE = U
NORAD_CAT_ID   = 67730
ELEMENT_SET_NO = 999
REV_AT_EPOCH   = 490
BSTAR          = -.27749E-1
MEAN_MOTION_DOT = -.1888785E-1
MEAN_MOTION_DDOT = 0

CCSDS_OMM_VERS = 2.0
CREATION_DATE  = 
ORIGINATOR     = 

OBJECT_NAME    = STARLINK-36315
OBJECT_ID      = 2026-026L
CENTER_NAME    = EARTH
REF_FRAME      = TEME
TIME_SYSTEM    = UTC
MEAN_ELEMENT_THEORY = SGP/SGP4

EPOCH          = 2026-03-07T04:00:03.000096
MEAN_MOTION    = 15.59057956
ECCENTRICITY   = .0001218
INCLINATION    = 97.2902
RA_OF_ASC_NODE = 120.6920
ARG_OF_PERICENTER = 105.7137
MEAN_ANOMALY   = 182.9606

EPHEMERIS_TYPE = 0
CLASSIFICATION_TYPE = U
NORAD_CAT_ID   = 67731
ELEMENT_SET_NO = 999
REV_AT_EPOCH   = 490
BSTAR          = -.28713E-1
MEAN_MOTION_DOT = -.1967137E-1
MEAN_MOTION_DDOT = 0

CCSDS_OMM_VERS = 2.0
CREATION_DATE  = 
ORIGINATOR     = 

OBJECT_NAME    = STARLINK-36260
OBJECT_ID      = 2026-026M
CENTER_NAME    = EARTH
REF_FRAME      = TEME
TIME_SYSTEM    = UTC
MEAN_ELEMENT_THEORY = SGP/SGP4

EPOCH          = 2026-03-07T04:00:03.000096
MEAN_MOTION    = 15.59405094
ECCENTRICITY   = .0001521
INCLINATION    = 97.2839
RA_OF_ASC_NODE = 120.6999
ARG_OF_PERICENTER = 76.4997
MEAN_ANOMALY   = 225.9199

EPHEMERIS_TYPE = 0
CLASSIFICATION_TYPE = U
NORAD_CAT_ID   = 67732
ELEMENT_SET_NO = 999
REV_AT_EPOCH   = 490
BSTAR          = -.27328E-1
MEAN_MOTION_DOT = -.1905572E-1
MEAN_MOTION_DDOT = 0

CCSDS_OMM_VERS = 2.0
CREATION_DATE  = 
ORIGINATOR     = 

OBJECT_NAME    = STARLINK-36746
OBJECT_ID      = 2026-026N
CENTER_NAME    = EARTH
REF_FRAME      = TEME
TIME_SYSTEM    = UTC
MEAN_ELEMENT_THEORY = SGP/SGP4

EPOCH          = 2026-03-07T04:00:03.000096
MEAN_MOTION    = 15.49107702
ECCENTRICITY   = .0001171
INCLINATION    = 97.2851
RA_OF_ASC_NODE = 120.4880
ARG_OF_PERICENTER = 84.1792
MEAN_ANOMALY   = 83.3100

EPHEMERIS_TYPE = 0
CLASSIFICATION_TYPE = U
NORAD_CAT_ID   = 67733
ELEMENT_SET_NO = 999
REV_AT_EPOCH   = 490
BSTAR          = .17756E-2
MEAN_MOTION_DOT = .97402E-3
MEAN_MOTION_DDOT = 0

