STARLINK-36796          
1 67722U 26026B   26066.16670139 -.01869087  00000+0 -30386-1 0  9994
2 67722  97.2846 120.6434 0001872  66.2347 104.1953 15.56006353  4908
STARLINK-36369          
1 67723U 26026C   26066.16670139 -.01880330  00000+0 -30133-1 0  9999
2 67723  97.2841 120.6498 0001843  67.2861 117.4256 15.56413131  4903
STARLINK-36752          
1 67724U 26026D   26066.16670139 -.01898122  00000+0 -29007-1 0  9996
2 67724  97.2841 120.6639 0001834  74.0604 144.5164 15.57712928  4908
STARLINK-36754          
1 67725U 26026E   26066.16670139 -.01874563  00000+0 -31506-1 0  9997
2 67725  97.2846 120.6437 0001921  61.5299 109.2176 15.55117866  4907
STARLINK-36755          
1 67726U 26026F   26066.16670139 -.01860380  00000+0 -34173-1 0  9993
2 67726  97.2841 120.6219 0001626  62.4051  59.7152 15.52664617  4900
STARLINK-36741          
1 67727U 26026G   26066.16670139 -.01858797  00000+0 -32771-1 0  9995
2 67727  97.2843 120.6364 0001842  69.1844  84.3848 15.53786910  4906
STARLINK-36757          
1 67728U 26026H   26066.16670139 -.01899175  00000+0 -28414-1 0  9990
2 67728  97.2837 120.6795 0001795  78.0796 176.9332 15.58277070  4903
STARLINK-36751          
1 67729U 26026J   26066.16670139 -.01889700  00000+0 -27659-1 0  9994
2 67729  97.2838 120.6904 0001724  78.2597 201.6306 15.58838668  4903
STARLINK-36747          
1 67730U 26026K   26066.16670139 -.01888785  00000+0 -27749-1 0  9998
2 67730  97.2838 120.6856 0001755  75.7423 193.7137 15.58738451  4907
STARLINK-36315          
1 67731U 26026L   26066.16670139 -.01967137  00000+0 -28713-1 0  9990
2 67731  97.2902 120.6920 0001218 105.7137 182.9606 15.59057956  4908
STARLINK-36260          
1 67732U 26026M   26066.16670139 -.01905572  00000+0 -27328-1 0  9997
2 67732  97.2839 120.6999 0001521  76.4997 225.9199 15.59405094  4904
STARLINK-36746          
1 67733U 26026N   26066.16670139  .00097402  00000+0  17756-2 0  9994
2 67733  97.2851 120.4880 0001171  84.1792  83.3100 15.49107702  4908
